ONEWEB-0389             
1 50469U 21132A   25193.91590585  .00000019  00000+0  15447-4 0  9999
2 50469  87.9054  73.4072 0001363  81.8001 278.3285 13.17648608173407
ONEWEB-0390             
1 50470U 21132B   25194.37320690 -.00000027  00000+0 -10317-3 0  9991
2 50470  87.9055  73.3234 0001868  72.1233 288.0102 13.17648201174753
ONEWEB-0391             
1 50471U 21132C   25194.37489899  .00000000  00000+0 -34375-4 0  9990
2 50471  87.9054  73.3375 0001005  66.2175 293.9062 13.17649184174752
ONEWEB-0392             
1 50472U 21132D   25194.40527251  .00000048  00000+0  91055-4 0  9999
2 50472  87.9048  73.2759 0001410  79.7998 280.3292 13.17648570174790
ONEWEB-0393             
1 50473U 21132E   25194.37841258  .00000035  00000+0  56739-4 0  9998
2 50473  87.9061  73.2980 0001626  79.2786 280.8529 13.17649333174786
ONEWEB-0394             
1 50474U 21132F   25194.08162983  .00000085  00000+0  18185-3 0  9995
2 50474  87.9125  42.8119 0001657  88.8534 271.2788 13.18687074178178
ONEWEB-0395             
1 50475U 21132G   25193.95158854 -.00000197  00000+0 -59167-3 0  9994
2 50475  87.8824  88.7035 0001628  69.3743 290.7560 13.11416500171257
ONEWEB-0396             
1 50476U 21132H   25193.92328857  .00001071  00000+0  26829-2 0  9992
2 50476  87.9122  42.8560 0001692  88.2468 271.8858 13.18691678176926
ONEWEB-0397             
1 50477U 21132J   25193.55872246  .00000022  00000+0  22966-4 0  9993
2 50477  87.9124  42.9300 0001790  91.9333 268.2004 13.18684364176852
ONEWEB-0398             
1 50478U 21132K   25193.46160299  .00000563  00000+0  15522-2 0  9990
2 50478  87.8824  88.7649 0001974  64.5287 295.6045 13.11419367171082
ONEWEB-0399             
1 50479U 21132L   25193.67691861 -.00000063  00000+0 -21334-3 0  9994
2 50479  87.8828  88.7454 0001648  86.1680 273.9636 13.11419954171106
ONEWEB-0400             
1 50480U 21132M   25194.14429803  .00000144  00000+0  33331-3 0  9992
2 50480  87.9121  42.8037 0001833  79.2437 280.8902 13.18683864178203
ONEWEB-0401             
1 50481U 21132N   25193.58183677 -.00000002  00000+0 -38916-4 0  9996
2 50481  87.9126  42.9111 0001917  92.1786 267.9566 13.18685856176851
ONEWEB-0402             
1 50482U 21132P   25194.07667645  .00000093  00000+0  20370-3 0  9996
2 50482  87.9124  42.8063 0002141 100.8832 259.2541 13.18684957178225
ONEWEB-0403             
1 50483U 21132Q   25194.55667038 -.00000039  00000+0 -13093-3 0  9992
2 50483  87.9123  42.7291 0001723  84.5464 275.5865 13.18683428178245
ONEWEB-0404             
1 50484U 21132R   25194.26864063 -.00000417  00000+0 -12132-2 0  9990
2 50484  87.8833  88.6306 0001495  76.9004 283.2291 13.11415534172540
ONEWEB-0405             
1 50485U 21132S   25193.50925604  .00000000  00000+0 -32683-4 0  9998
2 50485  87.9124  42.9247 0001845  95.2963 264.8380 13.18686052178518
ONEWEB-0406             
1 50486U 21132T   25193.57523426  .00000033  00000+0  51727-4 0  9997
2 50486  87.9126  42.9336 0001421  70.9645 289.1641 13.18686056178151
ONEWEB-0407             
1 50487U 21132U   25194.09976352  .00000011  00000+0 -44918-5 0  9998
2 50487  87.9124  42.8145 0001779  90.0838 270.0498 13.18684665178164
ONEWEB-0409             
1 50488U 21132V   25194.41955010 -.00000461  00000+0 -13361-2 0  9998
2 50488  87.8823  88.5631 0001626  70.4731 289.6572 13.11415379172465
ONEWEB-0412             
1 50489U 21132W   25194.08823186  .00000077  00000+0  16364-3 0  9998
2 50489  87.9123  42.8303 0001961  95.6722 264.4634 13.18686189178248
ONEWEB-0413             
1 50490U 21132X   25194.01731312  .00000100  00000+0  22125-3 0  9991
2 50490  87.9126  42.8592 0002124  93.0403 267.0972 13.18686326178183
ONEWEB-0414             
1 50491U 21132Y   25194.07832512  .00000129  00000+0  29510-3 0  9998
2 50491  87.9122  42.8080 0001762  93.5403 266.5930 13.18686024178222
ONEWEB-0417             
1 50492U 21132Z   25194.08655893  .00000092  00000+0  19974-3 0  9997
2 50492  87.9127  42.8370 0001638  84.6470 275.4849 13.18684417178207
ONEWEB-0418             
1 50493U 21132AA  25194.02045010  .00000086  00000+0  18640-3 0  9998
2 50493  87.9124  42.8370 0001433  84.4693 275.6603 13.18685437178240
ONEWEB-0419             
1 50494U 21132AB  25193.58348779  .00000043  00000+0  76219-4 0  9997
2 50494  87.9116  42.9273 0001660  75.8107 284.3209 13.18685378178110
ONEWEB-0420             
1 50495U 21132AC  25194.07998196  .00000127  00000+0  28938-3 0  9994
2 50495  87.9122  42.8374 0002185  86.7486 273.3896 13.18686641178184
ONEWEB-0421             
1 50496U 21132AD  25193.54224061  .00000032  00000+0  47650-4 0  9997
2 50496  87.9123  42.9374 0001763  95.6979 264.4354 13.18685033176850
ONEWEB-0424             
1 50497U 21132AE  25194.56492168 -.00000037  00000+0 -12712-3 0  9993
2 50497  87.9126  42.7274 0001798  71.8618 288.2710 13.18684803178299
ONEWEB-0426             
1 50498U 21132AF  25194.14594146  .00000137  00000+0  31558-3 0  9995
2 50498  87.9113  42.8057 0001377 107.9707 252.1575 13.18685964178196
ONEWEB-0427             
1 50499U 21132AG  25193.57687498  .00000027  00000+0  35486-4 0  9998
2 50499  87.9122  42.9081 0001600  83.4005 276.7309 13.18685119178158
ONEWEB-0429             
1 50500U 21132AH  25194.01893611  .00000092  00000+0  19988-3 0  9997
2 50500  87.9125  42.8481 0001987  85.6962 274.4397 13.18684330178179
ONEWEB-0430             
1 50501U 21132AJ  25194.53855118 -.00000004  00000+0 -42564-4 0  9997
2 50501  87.9126  42.7384 0001967  77.6019 282.5333 13.18686534178284
ONEWEB-0432             
1 50502U 21132AK  25193.58373144  .00000034  00000+0  53378-4 0  9992
2 50502  87.9117  42.9123 0001370  54.7005 305.4255 13.18686962178123
ONEWEB-0440             
1 50503U 21132AL  25194.10307087  .00000061  00000+0  12173-3 0  9992
2 50503  87.9126  42.8142 0002080  95.4990 264.6380 13.18684612178178
ONEWEB-0450             
1 50504U 21132AM  25193.56547255  .00000004  00000+0 -22733-4 0  9997
2 50504  87.9125  42.9481 0002119  83.0576 277.0797 13.18684504176843
ONEWEB-0410             
1 51622U 22012A   25194.39008197  .00000024  00000+0  29151-4 0  9998
2 51622  87.9055  73.2817 0000541 109.5996 250.5194 13.17649103170378
ONEWEB-0411             
1 51623U 22012B   25194.44385478  .00000367  00000+0  10161-2 0  9994
2 51623  87.8821 103.8263 0002280  63.9378 296.1984 13.10370630166202
ONEWEB-0415             
1 51624U 22012C   25194.44053171  .00000467  00000+0  13014-2 0  9998
2 51624  87.8815 103.8309 0002108  68.9698 291.1654 13.10369706166207
ONEWEB-0416             
1 51625U 22012D   25194.14671539 -.00000164  00000+0 -50753-3 0  9998
2 51625  87.8821 103.9070 0001876  75.1041 285.0294 13.10369789166218
ONEWEB-0422             
1 51626U 22012E   25193.94459689 -.00000018  00000+0 -79246-4 0  9993
2 51626  87.9051  73.3777 0002487  88.4876 271.6540 13.17648762169138
ONEWEB-0423             
1 51627U 22012F   25194.16565378  .00000059  00000+0  11963-3 0  9996
2 51627  87.9054  73.3413 0001850  82.6003 277.5338 13.17649176170345
ONEWEB-0425             
1 51628U 22012G   25193.69852223 -.00000584  00000+0 -17097-2 0  9990
2 51628  87.8820 103.9663 0001596  82.0783 278.0525 13.10371398164864
ONEWEB-0428             
1 51629U 22012H   25193.75497643  .00000247  00000+0  67066-3 0  9995
2 51629  87.8821 103.9767 0002122  77.2312 282.9053 13.10369627164830
ONEWEB-0431             
1 51630U 22012J   25194.48853285  .00000052  00000+0  11402-3 0  9993
2 51630  87.8818 103.8014 0002472  69.6853 290.4540 13.10376039166275
ONEWEB-0434             
1 51631U 22012K   25194.15998462 -.00000573  00000+0 -16770-2 0  9997
2 51631  87.8824 103.9088 0001381  91.3446 268.7839 13.10372505166210
ONEWEB-0435             
1 51632U 22012L   25194.16828456 -.00000503  00000+0 -14774-2 0  9999
2 51632  87.8826 103.8998 0002314  82.0122 278.1267 13.10374036166195
ONEWEB-0436             
1 51633U 22012M   25194.23315150  .00000078  00000+0  16708-3 0  9995
2 51633  87.9051  73.3148 0002115  79.5672 280.5698 13.17649778170336
ONEWEB-0438             
1 51634U 22012N   25194.15168900 -.00000360  00000+0 -10689-2 0  9993
2 51634  87.8822 103.9039 0001741  79.0433 281.0890 13.10370454166234
ONEWEB-0439             
1 51635U 22012P   25194.15500366 -.00000380  00000+0 -11239-2 0  9994
2 51635  87.8824 103.8915 0001961  79.6709 280.4639 13.10370667166202
ONEWEB-0442             
1 51636U 22012Q   25193.92181133  .00000044  00000+0  80853-4 0  9991
2 51636  87.9054  73.4295 0001195  73.7360 286.3903 13.17648337168995
ONEWEB-0443             
1 51637U 22012R   25194.16902940  .00000076  00000+0  16173-3 0  9994
2 51637  87.9049  73.3906 0001692  90.6478 269.4847 13.17648733170361
ONEWEB-0444             
1 51638U 22012S   25194.45048844 -.00000003  00000+0 -44260-4 0  9992
2 51638  87.8814 103.8344 0002031  81.6671 278.4686 13.10369377166261
ONEWEB-0445             
1 51639U 22012T   25194.16662238 -.00000493  00000+0 -14496-2 0  9999
2 51639  87.8816 103.8447 0001820  72.2298 287.9028 13.10375023166220
ONEWEB-0446             
1 51640U 22012U   25194.29611320  .00000035  00000+0  65387-4 0  9998
2 51640  87.8819 103.8792 0001909  70.2869 289.8465 13.10370005166241
ONEWEB-0448             
1 51641U 22012V   25193.69022469 -.00000331  00000+0 -98340-3 0  9997
2 51641  87.8822 103.9993 0001890  79.0225 281.1115 13.10370015164833
ONEWEB-0449             
1 51642U 22012W   25194.15334851 -.00000449  00000+0 -13235-2 0  9990
2 51642  87.8816 103.8803 0001492  87.0293 273.1005 13.10370690166209
ONEWEB-0451             
1 51643U 22012X   25194.15385101  .00000047  00000+0  89106-4 0  9999
2 51643  87.9050  73.3204 0001673  81.7180 278.4142 13.17650408170316
ONEWEB-0452             
1 51644U 22012Y   25193.92435502  .00000011  00000+0 -61010-5 0  9992
2 51644  87.9053  73.4302 0001683  88.9694 271.1630 13.17650225168990
